CCSDS_OMM_VERS = 2.0
CREATION_DATE  = 
ORIGINATOR     = 

OBJECT_NAME    = HULIANWANG DIGUI-124
OBJECT_ID      = 2025-295F
CENTER_NAME    = EARTH
REF_FRAME      = TEME
TIME_SYSTEM    = UTC
MEAN_ELEMENT_THEORY = SGP/SGP4

EPOCH          = 2025-12-20T19:58:25.123872
MEAN_MOTION    = 14.25949114
ECCENTRICITY   = .0012091
INCLINATION    = 50.0036
RA_OF_ASC_NODE = 338.0443
ARG_OF_PERICENTER = 275.7242
MEAN_ANOMALY   = 84.2293

EPHEMERIS_TYPE = 0
CLASSIFICATION_TYPE = U
NORAD_CAT_ID   = 67064
ELEMENT_SET_NO = 999
REV_AT_EPOCH   = 127
BSTAR          = -.17733E-3
MEAN_MOTION_DOT = -.586E-5
MEAN_MOTION_DDOT = 0

CCSDS_OMM_VERS = 2.0
CREATION_DATE  = 
ORIGINATOR     = 

OBJECT_NAME    = HULIANWANG DIGUI-125
OBJECT_ID      = 2025-295G
CENTER_NAME    = EARTH
REF_FRAME      = TEME
TIME_SYSTEM    = UTC
MEAN_ELEMENT_THEORY = SGP/SGP4

EPOCH          = 2025-12-20T19:58:22.620000
MEAN_MOTION    = 14.25954304
ECCENTRICITY   = .0012274
INCLINATION    = 50.0011
RA_OF_ASC_NODE = 338.0426
ARG_OF_PERICENTER = 281.6952
MEAN_ANOMALY   = 78.2584

EPHEMERIS_TYPE = 0
CLASSIFICATION_TYPE = U
NORAD_CAT_ID   = 67065
ELEMENT_SET_NO = 999
REV_AT_EPOCH   = 127
BSTAR          = .81057E-4
MEAN_MOTION_DOT = .34E-6
MEAN_MOTION_DDOT = 0

CCSDS_OMM_VERS = 2.0
CREATION_DATE  = 
ORIGINATOR     = 

OBJECT_NAME    = HULIANWANG DIGUI-126
OBJECT_ID      = 2025-295H
CENTER_NAME    = EARTH
REF_FRAME      = TEME
TIME_SYSTEM    = UTC
MEAN_ELEMENT_THEORY = SGP/SGP4

EPOCH          = 2025-12-20T19:57:04.607712
MEAN_MOTION    = 14.26097295
ECCENTRICITY   = .0011438
INCLINATION    = 50.0014
RA_OF_ASC_NODE = 338.0370
ARG_OF_PERICENTER = 278.7504
MEAN_ANOMALY   = 81.2114

EPHEMERIS_TYPE = 0
CLASSIFICATION_TYPE = U
NORAD_CAT_ID   = 67066
ELEMENT_SET_NO = 999
REV_AT_EPOCH   = 127
BSTAR          = .79926E-4
MEAN_MOTION_DOT = .32E-6
MEAN_MOTION_DDOT = 0

CCSDS_OMM_VERS = 2.0
CREATION_DATE  = 
ORIGINATOR     = 

OBJECT_NAME    = HULIANWANG DIGUI-127
OBJECT_ID      = 2025-295J
CENTER_NAME    = EARTH
REF_FRAME      = TEME
TIME_SYSTEM    = UTC
MEAN_ELEMENT_THEORY = SGP/SGP4

EPOCH          = 2025-12-20T19:55:50.721888
MEAN_MOTION    = 14.26250663
ECCENTRICITY   = .0010879
INCLINATION    = 50.0053
RA_OF_ASC_NODE = 338.0397
ARG_OF_PERICENTER = 282.4041
MEAN_ANOMALY   = 77.5656

EPHEMERIS_TYPE = 0
CLASSIFICATION_TYPE = U
NORAD_CAT_ID   = 67067
ELEMENT_SET_NO = 999
REV_AT_EPOCH   = 127
BSTAR          = -.24587E-3
MEAN_MOTION_DOT = -.754E-5
MEAN_MOTION_DDOT = 0

CCSDS_OMM_VERS = 2.0
CREATION_DATE  = 
ORIGINATOR     = 

OBJECT_NAME    = CZ-12 R/B
OBJECT_ID      = 2025-295K
CENTER_NAME    = EARTH
REF_FRAME      = TEME
TIME_SYSTEM    = UTC
MEAN_ELEMENT_THEORY = SGP/SGP4

EPOCH          = 2025-12-20T09:25:47.149248
MEAN_MOTION    = 14.41128985
ECCENTRICITY   = .00568631
INCLINATION    = 49.9943
RA_OF_ASC_NODE = 339.0702
ARG_OF_PERICENTER = 163.3207
MEAN_ANOMALY   = 196.9600

EPHEMERIS_TYPE = 0
CLASSIFICATION_TYPE = U
NORAD_CAT_ID   = 67068
ELEMENT_SET_NO = 999
REV_AT_EPOCH   = 121
BSTAR          = .9141767E-5
MEAN_MOTION_DOT = -.138E-5
MEAN_MOTION_DDOT = 0

CCSDS_OMM_VERS = 2.0
CREATION_DATE  = 
ORIGINATOR     = 

OBJECT_NAME    = XIWANG-5 02
OBJECT_ID      = 2025-296A
CENTER_NAME    = EARTH
REF_FRAME      = TEME
TIME_SYSTEM    = UTC
MEAN_ELEMENT_THEORY = SGP/SGP4

EPOCH          = 2025-12-20T16:03:45.589824
MEAN_MOTION    = 15.16823946
ECCENTRICITY   = .0014487
INCLINATION    = 41.3526
RA_OF_ASC_NODE = 56.3425
ARG_OF_PERICENTER = 81.8940
MEAN_ANOMALY   = 278.3524

EPHEMERIS_TYPE = 0
CLASSIFICATION_TYPE = U
NORAD_CAT_ID   = 67069
ELEMENT_SET_NO = 999
REV_AT_EPOCH   = 116
BSTAR          = .40295E-3
MEAN_MOTION_DOT = .79E-4
MEAN_MOTION_DDOT = 0

CCSDS_OMM_VERS = 2.0
CREATION_DATE  = 
ORIGINATOR     = 

OBJECT_NAME    = DEAR-5
OBJECT_ID      = 2025-296B
CENTER_NAME    = EARTH
REF_FRAME      = TEME
TIME_SYSTEM    = UTC
MEAN_ELEMENT_THEORY = SGP/SGP4

EPOCH          = 2025-12-20T14:27:47.771136
MEAN_MOTION    = 15.16880771
ECCENTRICITY   = .0016088
INCLINATION    = 41.3553
RA_OF_ASC_NODE = 56.7140
ARG_OF_PERICENTER = 82.8141
MEAN_ANOMALY   = 277.4509

EPHEMERIS_TYPE = 0
CLASSIFICATION_TYPE = U
NORAD_CAT_ID   = 67070
ELEMENT_SET_NO = 999
REV_AT_EPOCH   = 114
BSTAR          = .17212E-3
MEAN_MOTION_DOT = .326E-4
MEAN_MOTION_DDOT = 0

CCSDS_OMM_VERS = 2.0
CREATION_DATE  = 
ORIGINATOR     = 

OBJECT_NAME    = KZ-11 R/B
OBJECT_ID      = 2025-296C
CENTER_NAME    = EARTH
REF_FRAME      = TEME
TIME_SYSTEM    = UTC
MEAN_ELEMENT_THEORY = SGP/SGP4

EPOCH          = 2025-12-20T13:35:59.156160
MEAN_MOTION    = 15.10636457
ECCENTRICITY   = .0581991
INCLINATION    = 41.3222
RA_OF_ASC_NODE = 59.4281
ARG_OF_PERICENTER = 8.2061
MEAN_ANOMALY   = 352.7804

EPHEMERIS_TYPE = 0
CLASSIFICATION_TYPE = U
NORAD_CAT_ID   = 67071
ELEMENT_SET_NO = 999
REV_AT_EPOCH   = 111
BSTAR          = .50214993E-3
MEAN_MOTION_DOT = .6524805E-1
MEAN_MOTION_DDOT = .6555933E-5

CCSDS_OMM_VERS = 2.0
CREATION_DATE  = 
ORIGINATOR     = 

OBJECT_NAME    = ELECTRON R/B
OBJECT_ID      = 2025-297A
CENTER_NAME    = EARTH
REF_FRAME      = TEME
TIME_SYSTEM    = UTC
MEAN_ELEMENT_THEORY = SGP/SGP4

EPOCH          = 2025-12-20T20:47:08.999232
MEAN_MOTION    = 15.97243499
ECCENTRICITY   = .0169033
INCLINATION    = 97.4649
RA_OF_ASC_NODE = 142.9606
ARG_OF_PERICENTER = 203.2128
MEAN_ANOMALY   = 156.1453

EPHEMERIS_TYPE = 0
CLASSIFICATION_TYPE = U
NORAD_CAT_ID   = 67072
ELEMENT_SET_NO = 999
REV_AT_EPOCH   = 107
BSTAR          = .12503E-2
MEAN_MOTION_DOT = .2779166E-1
MEAN_MOTION_DDOT = .22133E-5

CCSDS_OMM_VERS = 2.0
CREATION_DATE  = 
ORIGINATOR     = 

OBJECT_NAME    = RAISE-4
OBJECT_ID      = 2025-297B
CENTER_NAME    = EARTH
REF_FRAME      = TEME
TIME_SYSTEM    = UTC
MEAN_ELEMENT_THEORY = SGP/SGP4

EPOCH          = 2025-12-20T09:36:45.835200
MEAN_MOTION    = 15.07185014
ECCENTRICITY   = .0011383
INCLINATION    = 97.4855
RA_OF_ASC_NODE = 141.7434
ARG_OF_PERICENTER = 292.6192
MEAN_ANOMALY   = 67.3831

EPHEMERIS_TYPE = 0
CLASSIFICATION_TYPE = U
NORAD_CAT_ID   = 67073
ELEMENT_SET_NO = 999
REV_AT_EPOCH   = 94
BSTAR          = .20098462E-3
MEAN_MOTION_DOT = .2967E-4
MEAN_MOTION_DDOT = 0

CCSDS_OMM_VERS = 2.0
CREATION_DATE  = 
ORIGINATOR     = 

OBJECT_NAME    = ELECTRON KICK STAGE R/B
OBJECT_ID      = 2025-297C
CENTER_NAME    = EARTH
REF_FRAME      = TEME
TIME_SYSTEM    = UTC
MEAN_ELEMENT_THEORY = SGP/SGP4

EPOCH          = 2025-12-20T09:37:55.540992
MEAN_MOTION    = 15.56699224
ECCENTRICITY   = .01998799
INCLINATION    = 97.4822
RA_OF_ASC_NODE = 142.2173
ARG_OF_PERICENTER = 241.6709
MEAN_ANOMALY   = 116.4258

EPHEMERIS_TYPE = 0
CLASSIFICATION_TYPE = U
NORAD_CAT_ID   = 67074
ELEMENT_SET_NO = 999
REV_AT_EPOCH   = 97
BSTAR          = .13588337E-2
MEAN_MOTION_DOT = .249717E-2
MEAN_MOTION_DDOT = .18464781E-4

CCSDS_OMM_VERS = 2.0
CREATION_DATE  = 
ORIGINATOR     = 

OBJECT_NAME    = STARLINK-36230
OBJECT_ID      = 2025-298A
CENTER_NAME    = EARTH
REF_FRAME      = TEME
TIME_SYSTEM    = UTC
MEAN_ELEMENT_THEORY = SGP/SGP4

EPOCH          = 2025-12-20T20:00:01.999008
MEAN_MOTION    = 15.91092329
ECCENTRICITY   = .0003988
INCLINATION    = 69.9988
RA_OF_ASC_NODE = 227.1462
ARG_OF_PERICENTER = 269.3524
MEAN_ANOMALY   = 359.3497

EPHEMERIS_TYPE = 0
CLASSIFICATION_TYPE = U
NORAD_CAT_ID   = 67075
ELEMENT_SET_NO = 999
REV_AT_EPOCH   = 228
BSTAR          = -.51034E-2
MEAN_MOTION_DOT = -.1609663E-1
MEAN_MOTION_DDOT = .72137E-3

CCSDS_OMM_VERS = 2.0
CREATION_DATE  = 
ORIGINATOR     = 

OBJECT_NAME    = STARLINK-36240
OBJECT_ID      = 2025-298B
CENTER_NAME    = EARTH
REF_FRAME      = TEME
TIME_SYSTEM    = UTC
MEAN_ELEMENT_THEORY = SGP/SGP4

EPOCH          = 2025-12-20T20:00:01.999008
MEAN_MOTION    = 15.91152195
ECCENTRICITY   = .0003958
INCLINATION    = 69.9987
RA_OF_ASC_NODE = 227.1442
ARG_OF_PERICENTER = 267.6645
MEAN_ANOMALY   = 2.5354

EPHEMERIS_TYPE = 0
CLASSIFICATION_TYPE = U
NORAD_CAT_ID   = 67076
ELEMENT_SET_NO = 999
REV_AT_EPOCH   = 228
BSTAR          = -.50999E-2
MEAN_MOTION_DOT = -.1613407E-1
MEAN_MOTION_DDOT = .7249E-3

CCSDS_OMM_VERS = 2.0
CREATION_DATE  = 
ORIGINATOR     = 

OBJECT_NAME    = STARLINK-36243
OBJECT_ID      = 2025-298C
CENTER_NAME    = EARTH
REF_FRAME      = TEME
TIME_SYSTEM    = UTC
MEAN_ELEMENT_THEORY = SGP/SGP4

EPOCH          = 2025-12-20T20:00:01.999008
MEAN_MOTION    = 15.91219365
ECCENTRICITY   = .0003906
INCLINATION    = 69.9985
RA_OF_ASC_NODE = 227.1421
ARG_OF_PERICENTER = 269.2818
MEAN_ANOMALY   = 2.7478

EPHEMERIS_TYPE = 0
CLASSIFICATION_TYPE = U
NORAD_CAT_ID   = 67077
ELEMENT_SET_NO = 999
REV_AT_EPOCH   = 228
BSTAR          = -.50802E-2
MEAN_MOTION_DOT = -.1612682E-1
MEAN_MOTION_DDOT = .72478E-3

CCSDS_OMM_VERS = 2.0
CREATION_DATE  = 
ORIGINATOR     = 

OBJECT_NAME    = STARLINK-36236
OBJECT_ID      = 2025-298D
CENTER_NAME    = EARTH
REF_FRAME      = TEME
TIME_SYSTEM    = UTC
MEAN_ELEMENT_THEORY = SGP/SGP4

EPOCH          = 2025-12-20T20:00:01.999008
MEAN_MOTION    = 15.91275545
ECCENTRICITY   = .0003918
INCLINATION    = 69.9986
RA_OF_ASC_NODE = 227.1403
ARG_OF_PERICENTER = 270.3447
MEAN_ANOMALY   = 3.0404

EPHEMERIS_TYPE = 0
CLASSIFICATION_TYPE = U
NORAD_CAT_ID   = 67078
ELEMENT_SET_NO = 999
REV_AT_EPOCH   = 228
BSTAR          = -.50773E-2
MEAN_MOTION_DOT = -.1616341E-1
MEAN_MOTION_DDOT = .72823E-3

